#aV2007  1  4  0  0   .00000000      96 DD+AD WGS84 FIT  NGA
## 1408 345600.00000000   900.00000000 54104  .0000000000000
+   30     1  2  3  4  5  6  7  8  9 10 11 12 13 14 16 17 18
+         19 20 21 22 23 24 25 26 27 28 29 30 31  0  0  0  0
+          0  0  0  0  0  0  0  0  0  0  0  0  0  0  0  0  0
+          0  0  0  0  0  0  0  0  0  0  0  0  0  0  0  0  0
+          0  0  0  0  0  0  0  0  0  0  0  0  0  0  0  0  0
++         0  0  0  0  0  0  0  0  0  0  0  0  0  0  0  0  0
++         0  0  0  0  0  0  0  0  0  0  0  0  0  0  0  0  0
++         0  0  0  0  0  0  0  0  0  0  0  0  0  0  0  0  0
++         0  0  0  0  0  0  0  0  0  0  0  0  0  0  0  0  0
++         0  0  0  0  0  0  0  0  0  0  0  0  0  0  0  0  0
%c cc cc ccc ccc cccc cccc cccc cccc ccccc ccccc ccccc ccccc
%c cc cc ccc ccc cccc cccc cccc cccc ccccc ccccc ccccc ccccc
%f  0.0000000  0.000000000  0.00000000000  0.000000000000000
%f  0.0000000  0.000000000  0.00000000000  0.000000000000000
%i    0    0    0    0      0      0      0      0         0
%i    0    0    0    0      0      0      0      0         0
/*      NGA, ST. LOUIS,MO.                                  
/*   EPHEMERIS COMPUTED FROM  3 DAYS OF DATA                
/* CCCCCCCCCCCCCCCCCCCCCCCCCCCCCCCCCCCCCCCCCCCCCCCCCCCCCCCCC
/* CCCCCCCCCCCCCCCCCCCCCCCCCCCCCCCCCCCCCCCCCCCCCCCCCCCCCCCCC
*  2007  1  4 11 45   .00000000                                                 
P  1  13610.220769 -13503.643546 -18144.449092     99.404192                    
V  1  -1577.408107  23401.332522 -18446.465500       .023031                    
P  2 -22683.429983  13238.579137   2686.394047     70.199701                    
V  2  -4857.118032  -1450.823130 -31380.367208       .034692                    
P  3  11717.531751 -17229.629483  16084.738709     -7.578191                    
V  3   3283.751456  20965.539628  20146.013890       .058772                    
P  4 -24670.409626   3829.841025  -9639.226879    351.892653                    
V  4   9838.927387  -7451.108400 -27951.741468       .030340                    
P  5   5383.659859  18555.898382 -18520.642239    459.627412                    
V  5 -20920.715783  -9847.464691 -15998.690160       .162945                    
P  6   7892.933517  22526.093209  11777.957878    474.780303                    
V  6  -3627.100012  14630.498433 -26012.659320      -.212649                    
P  7  10906.183977  19180.772661  15061.180365    455.971363                    
V  7  -2774.341368  18604.165671 -22276.265492      -.104000                    
P  8 -20008.278232  -3985.662511  17116.935592    -92.113525                    
V  8  19506.192432  -9739.422003  19963.919474      -.012150                    
P  9  -8239.168992  18362.944163 -17786.954549     51.640395                    
V  9 -19761.932372   8709.505252  18996.430990       .016430                    
P 10 -13679.643830   8071.008788  21239.078258     95.380507                    
V 10 -21803.806752 -16124.404193  -7564.949002       .005253                    
P 11   4307.490076 -19789.323020 -17144.446445      2.265843                    
V 11  19632.571551 -10226.869375  17119.894908       .014791                    
P 12   4196.536659  18450.123250 -18551.117295    -70.493925                    
V 12 -20522.264016 -12058.030378 -16504.362164       .076305                    
P 13  -7120.685959 -21212.944583  14255.327666    129.291618                    
V 13   3243.765510 -17939.453632 -24875.493649       .038887                    
P 14  14169.756289   4315.117386 -21967.402074      3.670539                    
V 14  -2710.729493  27883.658185   3647.545973       .011700                    
P 16  17869.579204  -3967.273406  19368.104594    108.866783                    
V 16  19323.915523  14907.945805 -14711.977048       .038955                    
P 17 -14868.587244  -4249.646516 -21609.806190     83.753691                    
V 17   2384.850937 -27316.817628   3617.816366      -.013046                    
P 18  19549.740615  17859.868327   3820.171598   -253.817119                    
V 18  -5319.013829   -630.431397  30936.377090      -.001184                    
P 19   8609.522996 -23953.356618   7513.998752     52.625724                    
V 19   1509.084814   9737.204665  29775.520274       .044790                    
P 20  -6924.428264 -19153.384886 -17161.212122    -21.914789                    
V 20  19013.244964  10438.943236 -19384.564020      -.000760                    
P 21  15180.575748   9219.696161  19994.643028     67.341922                    
V 21 -22555.100063  11066.558718  11524.913601       .012120                    
P 22  23095.615046  10371.772466  -7899.541889    159.997336                    
V 22   6457.885483   8468.687787  29383.622256       .021409                    
P 23   -754.491224 -26151.852565   3856.025251    144.827082                    
V 23   3027.186130  -4809.797581 -31572.974549       .012405                    
P 24 -16914.112237  16650.801440  12459.637544     65.746400                    
V 24 -14996.017996   4033.570583 -25862.760918       .032220                    
P 25  23852.047073 -10916.394360  -4292.849563    391.471270                    
V 25  -3632.344840   5453.908928 -30949.538458      -.088904                    
P 26  -8038.262584  23367.225104   8499.050899    -78.294623                    
V 26  -1029.227746 -11678.754883  30262.541864      -.174708                    
P 27 -12120.446677 -10614.947513  21792.984012     86.782018                    
V 27  22622.732348 -13104.306764   6110.053392       .020500                    
P 28 -22969.336047 -13096.521205  -3759.095878     10.377316                    
V 28  -2715.119470  -4995.742773  31061.777395      -.009016                    
P 29 -10169.299971  20613.573704  13232.249355    297.793958                    
V 29   -593.751458 -16594.052706  26161.383193       .185523                    
P 30  15448.155070  18924.622621 -10862.690249     21.538490                    
V 30 -12731.680082  -4796.473085 -27117.276538       .011444                    
P 31  24733.001940  -6853.353424  -6733.513215     -9.521330                    
V 31  -6726.880395   6276.830178 -30161.818609       .062284                    
EOF
